{
  "type": "FeatureCollection",
  "features": [
    {
      "type": "Feature",
      "properties": {
        "norad_id": 36585,
        "name": "GPS BIIF-1  (PRN 25)",
        "group": "gnss",
        "lat": -49.06446590205762,
        "lon": 160.24383657822852,
        "alt_km": 20416.721435590425,
        "timestamp": "2025-12-09T21:34:11.649043+00:00",
        "meta_object_name": "GPS BIIF-1  (PRN 25)",
        "meta_object_id": "2010-022A",
        "meta_epoch": "2025-12-09T05:42:57.006720",
        "meta_mean_motion": 2.00552985,
        "meta_eccentricity": 0.0125965,
        "meta_inclination": 54.3007,
        "meta_ra_of_asc_node": 216.2152,
        "meta_arg_of_pericenter": 65.0346,
        "meta_mean_anomaly": 110.6478,
        "meta_ephemeris_type": 0,
        "meta_classification_type": "U",
        "meta_norad_cat_id": 36585,
        "meta_element_set_no": 999,
        "meta_rev_at_epoch": 11378,
        "meta_bstar": 0,
        "meta_mean_motion_dot": 1.4e-07,
        "meta_mean_motion_ddot": 0,
        "tle_line1": "1 36585U 10022A   25343.23815980  .00000014  00000+0  00000+0 0  9998",
        "tle_line2": "2 36585  54.3007 216.2152 0125965  65.0346 110.6478  2.00552985113782"
      },
      "geometry": {
        "type": "Point",
        "coordinates": [
          160.24383657822852,
          -49.06446590205762
        ]
      }
    },
    {
      "type": "Feature",
      "properties": {
        "norad_id": 36828,
        "name": "BEIDOU-2 IGSO-1 (C06)",
        "group": "gnss",
        "lat": -11.267606464148287,
        "lon": 156.41466951755433,
        "alt_km": 35925.27089370097,
        "timestamp": "2025-12-09T21:34:11.649056+00:00",
        "meta_object_name": "BEIDOU-2 IGSO-1 (C06)",
        "meta_object_id": "2010-036A",
        "meta_epoch": "2025-12-09T10:39:31.929984",
        "meta_mean_motion": 1.00277193,
        "meta_eccentricity": 0.0051253,
        "meta_inclination": 54.2848,
        "meta_ra_of_asc_node": 164.6772,
        "meta_arg_of_pericenter": 215.9067,
        "meta_mean_anomaly": 325.5876,
        "meta_ephemeris_type": 0,
        "meta_classification_type": "U",
        "meta_norad_cat_id": 36828,
        "meta_element_set_no": 999,
        "meta_rev_at_epoch": 5619,
        "meta_bstar": 0,
        "meta_mean_motion_dot": -6.8e-07,
        "meta_mean_motion_ddot": 0,
        "tle_line1": "1 36828U 10036A   25343.44411956 -.00000068  00000+0  00000+0 0  9991",
        "tle_line2": "2 36828  54.2848 164.6772 0051253 215.9067 325.5876  1.00277193 56196"
      },
      "geometry": {
        "type": "Point",
        "coordinates": [
          156.41466951755433,
          -11.267606464148287
        ]
      }
    },
    {
      "type": "Feature",
      "properties": {
        "norad_id": 37210,
        "name": "BEIDOU-2 G4 (C04)",
        "group": "gnss",
        "lat": 2.332842600359582,
        "lon": -157.55755958494302,
        "alt_km": 35760.84692031307,
        "timestamp": "2025-12-09T21:34:11.649068+00:00",
        "meta_object_name": "BEIDOU-2 G4 (C04)",
        "meta_object_id": "2010-057A",
        "meta_epoch": "2025-12-09T14:20:03.306336",
        "meta_mean_motion": 1.00271261,
        "meta_eccentricity": 0.00109895,
        "meta_inclination": 3.1767,
        "meta_ra_of_asc_node": 69.9416,
        "meta_arg_of_pericenter": 189.8795,
        "meta_mean_anomaly": 193.8513,
        "meta_ephemeris_type": 0,
        "meta_classification_type": "U",
        "meta_norad_cat_id": 37210,
        "meta_element_set_no": 999,
        "meta_rev_at_epoch": 5539,
        "meta_bstar": 0,
        "meta_mean_motion_dot": -1.1e-06,
        "meta_mean_motion_ddot": 0,
        "tle_line1": "1 37210U 10057A   25343.59726049 -.00000110  00000+0  00000+0 0  9996",
        "tle_line2": "2 37210   3.1767  69.9416 0010989 189.8795 193.8513  1.00271261 55390"
      },
      "geometry": {
        "type": "Point",
        "coordinates": [
          -157.55755958494302,
          2.332842600359582
        ]
      }
    },
    {
      "type": "Feature",
      "properties": {
        "norad_id": 37256,
        "name": "BEIDOU-2 IGSO-2 (C07)",
        "group": "gnss",
        "lat": -37.94945225227524,
        "lon": 138.90797101018575,
        "alt_km": 35591.714070655835,
        "timestamp": "2025-12-09T21:34:11.649081+00:00",
        "meta_object_name": "BEIDOU-2 IGSO-2 (C07)",
        "meta_object_id": "2010-068A",
        "meta_epoch": "2025-12-03T17:22:36.027840",
        "meta_mean_motion": 1.0028872,
        "meta_eccentricity": 0.00492449,
        "meta_inclination": 47.9042,
        "meta_ra_of_asc_node": 274.2614,
        "meta_arg_of_pericenter": 216.1411,
        "meta_mean_anomaly": 310.24,
        "meta_ephemeris_type": 0,
        "meta_classification_type": "U",
        "meta_norad_cat_id": 37256,
        "meta_element_set_no": 999,
        "meta_rev_at_epoch": 5483,
        "meta_bstar": 0,
        "meta_mean_motion_dot": -2.25e-06,
        "meta_mean_motion_ddot": 0,
        "tle_line1": "1 37256U 10068A   25337.72402810 -.00000225  00000+0  00000+0 0  9990",
        "tle_line2": "2 37256  47.9042 274.2614 0049244 216.1411 310.2400  1.00288720 54834"
      },
      "geometry": {
        "type": "Point",
        "coordinates": [
          138.90797101018575,
          -37.94945225227524
        ]
      }
    },
    {
      "type": "Feature",
      "properties": {
        "norad_id": 37384,
        "name": "BEIDOU-2 IGSO-3 (C08)",
        "group": "gnss",
        "lat": 57.41733730330321,
        "lon": 166.23036639740153,
        "alt_km": 35753.19392794657,
        "timestamp": "2025-12-09T21:34:11.649094+00:00",
        "meta_object_name": "BEIDOU-2 IGSO-3 (C08)",
        "meta_object_id": "2011-013A",
        "meta_epoch": "2025-12-07T14:00:04.361184",
        "meta_mean_motion": 1.00271435,
        "meta_eccentricity": 0.0035334,
        "meta_inclination": 62.1366,
        "meta_ra_of_asc_node": 41.9657,
        "meta_arg_of_pericenter": 187.0632,
        "meta_mean_anomaly": 165.2408,
        "meta_ephemeris_type": 0,
        "meta_classification_type": "U",
        "meta_norad_cat_id": 37384,
        "meta_element_set_no": 999,
        "meta_rev_at_epoch": 5373,
        "meta_bstar": 0,
        "meta_mean_motion_dot": -1.91e-06,
        "meta_mean_motion_ddot": 0,
        "tle_line1": "1 37384U 11013A   25341.58338381 -.00000191  00000+0  00000+0 0  9995",
        "tle_line2": "2 37384  62.1366  41.9657 0035334 187.0632 165.2408  1.00271435 53735"
      },
      "geometry": {
        "type": "Point",
        "coordinates": [
          166.23036639740153,
          57.41733730330321
        ]
      }
    },
    {
      "type": "Feature",
      "properties": {
        "norad_id": 37605,
        "name": "GSAT-8 (GAGAN/PRN 127)",
        "group": "gnss",
        "lat": 0.39582124694466914,
        "lon": 97.4810804425064,
        "alt_km": 35827.20163123335,
        "timestamp": "2025-12-09T21:34:11.649106+00:00",
        "meta_object_name": "GSAT-8 (GAGAN/PRN 127)",
        "meta_object_id": "2011-022A",
        "meta_epoch": "2025-12-09T13:49:58.686816",
        "meta_mean_motion": 1.00262971,
        "meta_eccentricity": 0.00092899,
        "meta_inclination": 1.6415,
        "meta_ra_of_asc_node": 84.2167,
        "meta_arg_of_pericenter": 183.3094,
        "meta_mean_anomaly": 73.6191,
        "meta_ephemeris_type": 0,
        "meta_classification_type": "U",
        "meta_norad_cat_id": 37605,
        "meta_element_set_no": 999,
        "meta_rev_at_epoch": 5131,
        "meta_bstar": 0,
        "meta_mean_motion_dot": 8.8e-07,
        "meta_mean_motion_ddot": 0,
        "tle_line1": "1 37605U 11022A   25343.57637369  .00000088  00000+0  00000+0 0  9994",
        "tle_line2": "2 37605   1.6415  84.2167 0009289 183.3094  73.6191  1.00262971 51319"
      },
      "geometry": {
        "type": "Point",
        "coordinates": [
          97.4810804425064,
          0.39582124694466914
        ]
      }
    },
    {
      "type": "Feature",
      "properties": {
        "norad_id": 37763,
        "name": "BEIDOU-2 IGSO-4 (C09)",
        "group": "gnss",
        "lat": -23.223512779122938,
        "lon": 149.56533733018264,
        "alt_km": 35895.14268329015,
        "timestamp": "2025-12-09T21:34:11.649119+00:00",
        "meta_object_name": "BEIDOU-2 IGSO-4 (C09)",
        "meta_object_id": "2011-038A",
        "meta_epoch": "2025-12-01T12:32:09.960864",
        "meta_mean_motion": 1.00284084,
        "meta_eccentricity": 0.01488084,
        "meta_inclination": 54.5806,
        "meta_ra_of_asc_node": 167.4476,
        "meta_arg_of_pericenter": 230.2017,
        "meta_mean_anomaly": 315.0405,
        "meta_ephemeris_type": 0,
        "meta_classification_type": "U",
        "meta_norad_cat_id": 37763,
        "meta_element_set_no": 999,
        "meta_rev_at_epoch": 5266,
        "meta_bstar": 0,
        "meta_mean_motion_dot": 1.01e-06,
        "meta_mean_motion_ddot": 0,
        "tle_line1": "1 37763U 11038A   25335.52233751  .00000101  00000+0  00000+0 0  9995",
        "tle_line2": "2 37763  54.5806 167.4476 0148808 230.2017 315.0405  1.00284084 52669"
      },
      "geometry": {
        "type": "Point",
        "coordinates": [
          149.56533733018264,
          -23.223512779122938
        ]
      }
    }
  ]
}